[{"OBJECT_NAME":"TERRA","OBJECT_ID":"1999-068A","EPOCH":"2026-03-09T22:17:18.178368","MEAN_MOTION":14.61015031,"ECCENTRICITY":0.00027192,"INCLINATION":97.9593,"RA_OF_ASC_NODE":122.3543,"ARG_OF_PERICENTER":150.7418,"MEAN_ANOMALY":312.3442,"EPHEMERIS_TYPE":0,"CLASSIFICATION_TYPE":"U","NORAD_CAT_ID":25994,"ELEMENT_SET_NO":999,"REV_AT_EPOCH":39511,"BSTAR":0.00012453868,"MEAN_MOTION_DOT":5.67e-6,"MEAN_MOTION_DDOT":0},{"OBJECT_NAME":"CZ-6A DEB","OBJECT_ID":"2024-140BC","EPOCH":"2026-03-09T14:35:05.324928","MEAN_MOTION":14.44707338,"ECCENTRICITY":0.0074976,"INCLINATION":88.8801,"RA_OF_ASC_NODE":275.1394,"ARG_OF_PERICENTER":273.607,"MEAN_ANOMALY":85.6561,"EPHEMERIS_TYPE":0,"CLASSIFICATION_TYPE":"U","NORAD_CAT_ID":60651,"ELEMENT_SET_NO":999,"REV_AT_EPOCH":8344,"BSTAR":0.00012565,"MEAN_MOTION_DOT":4.66e-6,"MEAN_MOTION_DDOT":0}]
